[{"OBJECT_NAME":"SL-8 R/B","OBJECT_ID":"1991-006B","EPOCH":"2026-04-01T05:06:31.853088","MEAN_MOTION":13.77497883,"ECCENTRICITY":0.0021626,"INCLINATION":82.9439,"RA_OF_ASC_NODE":153.3005,"ARG_OF_PERICENTER":335.4519,"MEAN_ANOMALY":78.5931,"EPHEMERIS_TYPE":0,"CLASSIFICATION_TYPE":"U","NORAD_CAT_ID":21088,"ELEMENT_SET_NO":999,"REV_AT_EPOCH":76717,"BSTAR":0.00010654,"MEAN_MOTION_DOT":1.21e-6,"MEAN_MOTION_DDOT":0},{"OBJECT_NAME":"OKEAN-3","OBJECT_ID":"1991-039A","EPOCH":"2026-04-01T05:16:45.352704","MEAN_MOTION":15.04935022,"ECCENTRICITY":0.0012518,"INCLINATION":82.5154,"RA_OF_ASC_NODE":315.0126,"ARG_OF_PERICENTER":253.6565,"MEAN_ANOMALY":106.3286,"EPHEMERIS_TYPE":0,"CLASSIFICATION_TYPE":"U","NORAD_CAT_ID":21397,"ELEMENT_SET_NO":999,"REV_AT_EPOCH":86842,"BSTAR":0.00021008,"MEAN_MOTION_DOT":3.007e-5,"MEAN_MOTION_DDOT":0},{"OBJECT_NAME":"COSMOS 2151","OBJECT_ID":"1991-042A","EPOCH":"2026-04-01T03:52:58.771776","MEAN_MOTION":15.00203421,"ECCENTRICITY":0.0012002,"INCLINATION":82.495,"RA_OF_ASC_NODE":61.9921,"ARG_OF_PERICENTER":352.4037,"MEAN_ANOMALY":7.7003,"EPHEMERIS_TYPE":0,"CLASSIFICATION_TYPE":"U","NORAD_CAT_ID":21422,"ELEMENT_SET_NO":999,"REV_AT_EPOCH":86656,"BSTAR":0.00016607,"MEAN_MOTION_DOT":2.104e-5,"MEAN_MOTION_DDOT":0},{"OBJECT_NAME":"SL-14 R/B","OBJECT_ID":"1991-042B","EPOCH":"2026-04-01T00:59:11.498784","MEAN_MOTION":14.8185278,"ECCENTRICITY":0.0017488,"INCLINATION":82.4957,"RA_OF_ASC_NODE":199.2278,"ARG_OF_PERICENTER":163.0627,"MEAN_ANOMALY":197.1175,"EPHEMERIS_TYPE":0,"CLASSIFICATION_TYPE":"U","NORAD_CAT_ID":21423,"ELEMENT_SET_NO":999,"REV_AT_EPOCH":85638,"BSTAR":7.5246e-5,"MEAN_MOTION_DOT":6.19e-6,"MEAN_MOTION_DDOT":0},{"OBJECT_NAME":"ERS-1","OBJECT_ID":"1991-050A","EPOCH":"2026-04-01T01:54:50.902848","MEAN_MOTION":14.39466676,"ECCENTRICITY":0.0032817,"INCLINATION":98.7862,"RA_OF_ASC_NODE":109.8758,"ARG_OF_PERICENTER":134.555,"MEAN_ANOMALY":225.8325,"EPHEMERIS_TYPE":0,"CLASSIFICATION_TYPE":"U","NORAD_CAT_ID":21574,"ELEMENT_SET_NO":999,"REV_AT_EPOCH":81895,"BSTAR":0.00014639,"MEAN_MOTION_DOT":4.13e-6,"MEAN_MOTION_DDOT":0},{"OBJECT_NAME":"ARIANE 40 R/B","OBJECT_ID":"1991-050F","EPOCH":"2026-04-01T03:31:22.535040","MEAN_MOTION":14.42910233,"ECCENTRICITY":0.0003358,"INCLINATION":98.1964,"RA_OF_ASC_NODE":142.5354,"ARG_OF_PERICENTER":29.7582,"MEAN_ANOMALY":330.3799,"EPHEMERIS_TYPE":0,"CLASSIFICATION_TYPE":"U","NORAD_CAT_ID":21610,"ELEMENT_SET_NO":999,"REV_AT_EPOCH":82223,"BSTAR":0.00013222,"MEAN_MOTION_DOT":4.0e-6,"MEAN_MOTION_DDOT":0},{"OBJECT_NAME":"INTERCOSMOS 25","OBJECT_ID":"1991-086A","EPOCH":"2026-04-01T00:39:50.333760","MEAN_MOTION":12.12076949,"ECCENTRICITY":0.1486432,"INCLINATION":82.6002,"RA_OF_ASC_NODE":296.503,"ARG_OF_PERICENTER":68.8043,"MEAN_ANOMALY":306.509,"EPHEMERIS_TYPE":0,"CLASSIFICATION_TYPE":"U","NORAD_CAT_ID":21819,"ELEMENT_SET_NO":999,"REV_AT_EPOCH":49939,"BSTAR":0.00043197,"MEAN_MOTION_DOT":2.235e-5,"MEAN_MOTION_DDOT":0},{"OBJECT_NAME":"SL-8 R/B","OBJECT_ID":"1992-008B","EPOCH":"2026-04-01T05:07:49.798848","MEAN_MOTION":13.75969653,"ECCENTRICITY":0.0035888,"INCLINATION":82.9238,"RA_OF_ASC_NODE":251.0184,"ARG_OF_PERICENTER":72.6071,"MEAN_ANOMALY":99.4282,"EPHEMERIS_TYPE":0,"CLASSIFICATION_TYPE":"U","NORAD_CAT_ID":21876,"ELEMENT_SET_NO":999,"REV_AT_EPOCH":71251,"BSTAR":-7.3004e-6,"MEAN_MOTION_DOT":8.0e-8,"MEAN_MOTION_DDOT":0},{"OBJECT_NAME":"SL-8 R/B","OBJECT_ID":"1992-020B","EPOCH":"2026-04-01T04:00:53.180352","MEAN_MOTION":13.75550643,"ECCENTRICITY":0.0027888,"INCLINATION":82.9297,"RA_OF_ASC_NODE":137.0718,"ARG_OF_PERICENTER":233.129,"MEAN_ANOMALY":181.3069,"EPHEMERIS_TYPE":0,"CLASSIFICATION_TYPE":"U","NORAD_CAT_ID":21938,"ELEMENT_SET_NO":999,"REV_AT_EPOCH":70422,"BSTAR":3.1307e-5,"MEAN_MOTION_DOT":4.5e-7,"MEAN_MOTION_DDOT":0},{"OBJECT_NAME":"USA 81","OBJECT_ID":"1992-023A","EPOCH":"2026-04-01T03:40:13.556352","MEAN_MOTION":14.32375406,"ECCENTRICITY":0.0001645,"INCLINATION":85.0043,"RA_OF_ASC_NODE":118.4769,"ARG_OF_PERICENTER":68.6872,"MEAN_ANOMALY":291.4496,"EPHEMERIS_TYPE":0,"CLASSIFICATION_TYPE":"U","NORAD_CAT_ID":21949,"ELEMENT_SET_NO":999,"REV_AT_EPOCH":9800,"BSTAR":7.5992e-5,"MEAN_MOTION_DOT":2.25e-6,"MEAN_MOTION_DDOT":0},{"OBJECT_NAME":"COSMOS 2219","OBJECT_ID":"1992-076A","EPOCH":"2026-04-01T03:46:19.796448","MEAN_MOTION":14.14089614,"ECCENTRICITY":0.0017774,"INCLINATION":71.0614,"RA_OF_ASC_NODE":331.1053,"ARG_OF_PERICENTER":173.505,"MEAN_ANOMALY":186.6307,"EPHEMERIS_TYPE":0,"CLASSIFICATION_TYPE":"U","NORAD_CAT_ID":22219,"ELEMENT_SET_NO":999,"REV_AT_EPOCH":72155,"BSTAR":-8.9199e-5,"MEAN_MOTION_DOT":-2.17e-6,"MEAN_MOTION_DDOT":0},{"OBJECT_NAME":"SL-16 R/B","OBJECT_ID":"1992-076B","EPOCH":"2026-04-01T05:12:40.851936","MEAN_MOTION":14.16863143,"ECCENTRICITY":0.0010799,"INCLINATION":70.999,"RA_OF_ASC_NODE":140.9235,"ARG_OF_PERICENTER":54.5263,"MEAN_ANOMALY":2.9639,"EPHEMERIS_TYPE":0,"CLASSIFICATION_TYPE":"U","NORAD_CAT_ID":22220,"ELEMENT_SET_NO":999,"REV_AT_EPOCH":72502,"BSTAR":-7.7609e-5,"MEAN_MOTION_DOT":-2.04e-6,"MEAN_MOTION_DDOT":0},{"OBJECT_NAME":"COSMOS 2221","OBJECT_ID":"1992-080A","EPOCH":"2026-04-01T04:11:16.943424","MEAN_MOTION":14.96296752,"ECCENTRICITY":0.0015618,"INCLINATION":82.5006,"RA_OF_ASC_NODE":257.5359,"ARG_OF_PERICENTER":115.11,"MEAN_ANOMALY":245.1745,"EPHEMERIS_TYPE":0,"CLASSIFICATION_TYPE":"U","NORAD_CAT_ID":22236,"ELEMENT_SET_NO":999,"REV_AT_EPOCH":78415,"BSTAR":0.00018885,"MEAN_MOTION_DOT":2.164e-5,"MEAN_MOTION_DDOT":0},{"OBJECT_NAME":"SL-16 R/B","OBJECT_ID":"1992-093B","EPOCH":"2026-04-01T01:42:34.556256","MEAN_MOTION":14.15455812,"ECCENTRICITY":0.0006583,"INCLINATION":71.0226,"RA_OF_ASC_NODE":317.2836,"ARG_OF_PERICENTER":272.1865,"MEAN_ANOMALY":87.8504,"EPHEMERIS_TYPE":0,"CLASSIFICATION_TYPE":"U","NORAD_CAT_ID":22285,"ELEMENT_SET_NO":999,"REV_AT_EPOCH":71632,"BSTAR":5.6891e-5,"MEAN_MOTION_DOT":6.4e-7,"MEAN_MOTION_DDOT":0},{"OBJECT_NAME":"COSMOS 2228","OBJECT_ID":"1992-094A","EPOCH":"2026-04-01T04:13:10.534368","MEAN_MOTION":14.97309631,"ECCENTRICITY":0.0017063,"INCLINATION":82.5193,"RA_OF_ASC_NODE":215.7808,"ARG_OF_PERICENTER":222.8506,"MEAN_ANOMALY":137.1387,"EPHEMERIS_TYPE":0,"CLASSIFICATION_TYPE":"U","NORAD_CAT_ID":22286,"ELEMENT_SET_NO":999,"REV_AT_EPOCH":77942,"BSTAR":0.00023973,"MEAN_MOTION_DOT":2.813e-5,"MEAN_MOTION_DDOT":0},{"OBJECT_NAME":"SL-16 R/B","OBJECT_ID":"1993-016B","EPOCH":"2026-04-01T04:25:47.591904","MEAN_MOTION":14.15306446,"ECCENTRICITY":0.0012346,"INCLINATION":71.0074,"RA_OF_ASC_NODE":167.9389,"ARG_OF_PERICENTER":285.1911,"MEAN_ANOMALY":74.7846,"EPHEMERIS_TYPE":0,"CLASSIFICATION_TYPE":"U","NORAD_CAT_ID":22566,"ELEMENT_SET_NO":999,"REV_AT_EPOCH":70535,"BSTAR":0.00012407,"MEAN_MOTION_DOT":1.94e-6,"MEAN_MOTION_DDOT":0},{"OBJECT_NAME":"COSMOS 2242","OBJECT_ID":"1993-024A","EPOCH":"2026-04-01T04:01:35.028192","MEAN_MOTION":14.96647866,"ECCENTRICITY":0.001527,"INCLINATION":82.5168,"RA_OF_ASC_NODE":245.2097,"ARG_OF_PERICENTER":226.3073,"MEAN_ANOMALY":133.6885,"EPHEMERIS_TYPE":0,"CLASSIFICATION_TYPE":"U","NORAD_CAT_ID":22626,"ELEMENT_SET_NO":999,"REV_AT_EPOCH":78375,"BSTAR":0.00023974,"MEAN_MOTION_DOT":2.764e-5,"MEAN_MOTION_DDOT":0}]
