SL-8 R/B                
1 21088U 91006B   26091.21286867  .00000121  00000+0  10654-3 0  9995
2 21088  82.9439 153.3005 0021626 335.4519  78.5931 13.77497883767178
OKEAN-3                 
1 21397U 91039A   26091.21996936  .00003007  00000+0  21008-3 0  9990
2 21397  82.5154 315.0126 0012518 253.6565 106.3286 15.04935022868421
COSMOS 2151             
1 21422U 91042A   26091.16179134  .00002104  00000+0  16607-3 0  9996
2 21422  82.4950  61.9921 0012002 352.4037   7.7003 15.00203421866564
SL-14 R/B               
1 21423U 91042B   26091.04110531  .00000619  00000+0  75246-4 0  9994
2 21423  82.4957 199.2278 0017488 163.0627 197.1175 14.81852780856385
ERS-1                   
1 21574U 91050A   26091.07975582  .00000413  00000+0  14639-3 0  9998
2 21574  98.7862 109.8758 0032817 134.5550 225.8325 14.39466676818953
ARIANE 40 R/B           
1 21610U 91050F   26091.14678860  .00000400  00000+0  13222-3 0  9999
2 21610  98.1964 142.5354 0003358  29.7582 330.3799 14.42910233822235
INTERCOSMOS 25          
1 21819U 91086A   26091.02766590  .00002235  00000+0  43197-3 0  9996
2 21819  82.6002 296.5030 1486432  68.8043 306.5090 12.12076949499391
SL-8 R/B                
1 21876U 92008B   26091.21377082  .00000008  00000+0 -73004-5 0  9998
2 21876  82.9238 251.0184 0035888  72.6071  99.4282 13.75969653712518
SL-8 R/B                
1 21938U 92020B   26091.16728218  .00000045  00000+0  31307-4 0  9995
2 21938  82.9297 137.0718 0027888 233.1290 181.3069 13.75550643704224
USA 81                  
1 21949U 92023A   26091.15293468  .00000225  00000+0  75992-4 0  9991
2 21949  85.0043 118.4769 0001645  68.6872 291.4496 14.32375406 98003
COSMOS 2219             
1 22219U 92076A   26091.15717357 -.00000217  00000+0 -89199-4 0  9995
2 22219  71.0614 331.1053 0017774 173.5050 186.6307 14.14089614721559
SL-16 R/B               
1 22220U 92076B   26091.21713949 -.00000204  00000+0 -77609-4 0  9996
2 22220  70.9990 140.9235 0010799  54.5263   2.9639 14.16863143725021
COSMOS 2221             
1 22236U 92080A   26091.17450166  .00002164  00000+0  18885-3 0  9997
2 22236  82.5006 257.5359 0015618 115.1100 245.1745 14.96296752784158
SL-16 R/B               
1 22285U 92093B   26091.07123329  .00000064  00000+0  56891-4 0  9999
2 22285  71.0226 317.2836 0006583 272.1865  87.8504 14.15455812716329
COSMOS 2228             
1 22286U 92094A   26091.17581637  .00002813  00000+0  23973-3 0  9990
2 22286  82.5193 215.7808 0017063 222.8506 137.1387 14.97309631779425
SL-16 R/B               
1 22566U 93016B   26091.18457861  .00000194  00000+0  12407-3 0  9998
2 22566  71.0074 167.9389 0012346 285.1911  74.7846 14.15306446705358
COSMOS 2242             
1 22626U 93024A   26091.16776653  .00002764  00000+0  23974-3 0  9991
2 22626  82.5168 245.2097 0015270 226.3073 133.6885 14.96647866783758
